{
  "norad_id": 62071,
  "name": "STARLINK-32553",
  "history": [
    {
      "epoch": "2026-03-28T06:39:29.887200Z",
      "apogee_km": 475.9837800677633,
      "perigee_km": 474.39929051040417,
      "latitude_deg": 4.7183440096329e-05,
      "longitude_deg": -177.7614772746452,
      "height_km": 476.0062047688636,
      "semi_major_axis_km": 6853.328535289083,
      "eccentricity": 0.0001156,
      "inclination_deg": 53.1585,
      "raan_deg": 107.8132,
      "arg_perigee_deg": 83.9568,
      "mean_anomaly_deg": 276.1565,
      "mean_motion_rev_day": 15.30207882
    },
    {
      "epoch": "2026-03-29T04:36:14.473152Z",
      "apogee_km": 476.3178705913224,
      "perigee_km": 473.9891224806006,
      "latitude_deg": 3.152396225523534e-05,
      "longitude_deg": -152.09494255224456,
      "height_km": 476.5642229384527,
      "semi_major_axis_km": 6853.290496535961,
      "eccentricity": 0.0001699,
      "inclination_deg": 53.1585,
      "raan_deg": 103.5668,
      "arg_perigee_deg": 116.1504,
      "mean_anomaly_deg": 243.9672,
      "mean_motion_rev_day": 15.30220622
    },
    {
      "epoch": "2026-03-29T06:10:17.359968Z",
      "apogee_km": 476.86715127771186,
      "perigee_km": 473.4096738320777,
      "latitude_deg": 7.225253212335678e-05,
      "longitude_deg": -175.97501421898482,
      "height_km": 477.48763077740375,
      "semi_major_axis_km": 6853.2754125548945,
      "eccentricity": 0.00025225,
      "inclination_deg": 53.1584,
      "raan_deg": 103.2631,
      "arg_perigee_deg": 147.0999,
      "mean_anomaly_deg": 213.016,
      "mean_motion_rev_day": 15.30225674
    },
    {
      "epoch": "2026-03-30T10:23:15.452736Z",
      "apogee_km": 476.0979376187788,
      "perigee_km": 474.38020743996094,
      "latitude_deg": -2.4408543156460503e-05,
      "longitude_deg": 114.16276587233922,
      "height_km": 476.13421751875757,
      "semi_major_axis_km": 6853.37607252937,
      "eccentricity": 0.00012532,
      "inclination_deg": 53.1586,
      "raan_deg": 97.8018,
      "arg_perigee_deg": 89.813,
      "mean_anomaly_deg": 270.3014,
      "mean_motion_rev_day": 15.30191961
    },
    {
      "epoch": "2026-03-31T09:54:03.288384Z",
      "apogee_km": 476.1033202093513,
      "perigee_km": 474.2634778150332,
      "latitude_deg": -1.3136717963207877e-05,
      "longitude_deg": 115.94740389360828,
      "height_km": 475.96048432892957,
      "semi_major_axis_km": 6853.320399012192,
      "eccentricity": 0.00013423,
      "inclination_deg": 53.1589,
      "raan_deg": 93.2514,
      "arg_perigee_deg": 82.4546,
      "mean_anomaly_deg": 277.6607,
      "mean_motion_rev_day": 15.30210607
    },
    {
      "epoch": "2026-04-01T17:15:06.955200Z",
      "apogee_km": 476.2267364948093,
      "perigee_km": 474.2406296708523,
      "latitude_deg": 1.1729908391747686e-05,
      "longitude_deg": -1.6744948496692111,
      "height_km": 476.2364560614437,
      "semi_major_axis_km": 6853.3706830828305,
      "eccentricity": 0.0001449,
      "inclination_deg": 53.1597,
      "raan_deg": 87.1823,
      "arg_perigee_deg": 96.0679,
      "mean_anomaly_deg": 264.0487,
      "mean_motion_rev_day": 15.30193766
    },
    {
      "epoch": "2026-04-02T16:45:53.936352Z",
      "apogee_km": 475.99609340907955,
      "perigee_km": 474.24138580950967,
      "latitude_deg": 3.964086366300226e-05,
      "longitude_deg": 0.1121253157893344,
      "height_km": 475.9198438542101,
      "semi_major_axis_km": 6853.255739609294,
      "eccentricity": 0.00012802,
      "inclination_deg": 53.1598,
      "raan_deg": 82.6303,
      "arg_perigee_deg": 83.6554,
      "mean_anomaly_deg": 276.4593,
      "mean_motion_rev_day": 15.30232263
    }
  ]
}